SPHINX/FRAZIER          
1 63232U 25052Y   26092.20768784  .00010016  00000+0  42808-3 0  9993
2 63232  97.4044 346.2795 0007564  64.5765 295.6254 15.23024162 58302
LIZZIESAT-3 (LS-3)      
1 63233U 25052Z   26092.65449825  .00007914  00000+0  35939-3 0  9995
2 63233  97.4005 345.8307 0007723  71.7651 288.4424 15.21022263 58324
TOMORROW-S5             
1 63234U 25052AA  26092.27501774  .00006973  00000+0  31021-3 0  9998
2 63234  97.4075 346.1530 0008466  64.3762 295.8348 15.21767679 58290
OTP-2                   
1 63235U 25052AB  26092.23265146  .00012458  00000+0  53330-3 0  9997
2 63235  97.3961 345.8179 0008308  74.3568 285.8585 15.22906694 58306
ORBASTRO-TR5            
1 63236U 25052AC  26092.41697949  .00009001  00000+0  40167-3 0  9992
2 63236  97.3950 345.4550 0005759  70.5143 289.6714 15.21594491 58299
TEVEL2-9                
1 63237U 25052AD  26092.19574776  .00026250  00000+0  91646-3 0  9993
2 63237  97.4032 347.7699 0008036  61.5289 298.6760 15.29539104 58405
TEVEL2-7                
1 63238U 25052AE  26091.96179638  .00019032  00000+0  67091-3 0  9993
2 63238  97.4032 347.4820 0008203  62.1848 298.0223 15.29287744 58366
TEVEL2-8                
1 63239U 25052AF  26092.42717128  .00026732  00000+0  94018-3 0  9992
2 63239  97.4030 347.9251 0008301  62.0512 298.1568 15.29292730 58436
AL MUNTHER              
1 63240U 25052AG  26092.20783776  .00027470  00000+0  96459-3 0  9993
2 63240  97.3978 347.3363 0008408  67.0898 293.1228 15.29338793 58399
TRANSPORTER-13 OBJECT AH
1 63241U 25052AH  26092.45525506  .00018918  00000+0  73423-3 0  9999
2 63241  97.3941 346.6858 0008770  71.7505 288.4687 15.26109464 58383
HERMES-1                
1 63242U 25052AJ  26092.64462453  .00007766  00000+0  35404-3 0  9998
2 63242  97.3995 345.6327 0009199  89.5102 270.7188 15.20883906 58316
HERMES-2                
1 63243U 25052AK  26092.23850315  .00011087  00000+0  40285-3 0  9996
2 63243  97.3981 347.6419 0005530  40.6997 319.4656 15.28436160 58417
PANDORE                 
1 63244U 25052AL  26092.64548500  .00004821  00000+0  45026-3 0  9998
2 63244  97.6991 345.4567 0006552  88.1727 272.0244 14.94609009 57327
BUCCANEER MM            
1 63245U 25052AM  26092.84234689  .00005026  00000+0  47340-3 0  9990
2 63245  97.6958 345.3802 0005694 101.0430 259.1431 14.94256090 57348
LEMUR-2-LEIA-PHILIP     
1 63246U 25052AN  26092.41425373  .00008265  00000+0  72367-3 0  9991
2 63246  97.6919 345.6219 0004915 111.5880 248.5866 14.96944364 57334
EZIE-A                  
1 63247U 25052AP  26092.64874584  .00008826  00000+0  77864-3 0  9999
2 63247  97.6984 346.0224 0005098  91.8420 268.3385 14.96629030 57360
LEMUR-2-LIA-MARTIN      
1 63248U 25052AQ  26092.49984931  .00007732  00000+0  67466-3 0  9993
2 63248  97.6975 346.0921 0004546  85.7399 274.4343 14.97101725 57357
EZIE-C                  
1 63249U 25052AR  26092.44179430  .00009899  00000+0  87270-3 0  9990
2 63249  97.6958 345.7349 0004830 102.7013 257.4749 14.96621038 57330
EZIE-B                  
1 63250U 25052AS  26092.63576985  .00008490  00000+0  74962-3 0  9999
2 63250  97.6985 346.0696 0005058  87.7655 272.4146 14.96610201 57369
UVSQ-SAT NG             
1 63251U 25052AT  26092.63878036  .00004062  00000+0  37644-3 0  9999
2 63251  97.6940 345.5578 0004422 108.4211 251.7491 14.95018723 57348
ARVAKER-1               
1 63252U 25052AU  26092.62119014  .00002702  00000+0  25698-3 0  9998
2 63252  97.6958 345.3542 0003825 101.9607 258.2042 14.94261551 57320
ICEYE-X48               
1 63253U 25052AV  26092.69670433  .00004144  00000+0  36011-3 0  9996
2 63253  97.6954 346.0301 0003334  97.1323 263.0279 14.97533416 57370
YAM-8                   
1 63254U 25052AW  26092.23923257  .00008329  00000+0  49930-3 0  9995
2 63254  97.7010 353.1998 0004040 100.5901 259.5784 15.11223642 57793
ICEYE-X50               
1 63255U 25052AX  26092.80106360  .00002391  00000+0  22369-3 0  9997
2 63255  97.6983 346.1261 0003518  93.7156 266.4467 14.95025253 57380
FIRESAT 0 (MUSAT-4)     
1 63256U 25052AY  26092.66303473  .00001877  00000+0  18706-3 0  9994
2 63256  97.7053 345.4643 0001955 103.1952 256.9486 14.92765456 57321
ICEYE-X51               
1 63257U 25052AZ  26092.78877313  .00006584  00000+0  52182-3 0  9993
2 63257  97.7401 348.1249 0002032  65.7375 294.4061 15.00889186 57491
ICEYE-X46               
1 63258U 25052BA  26092.20440126  .00003122  00000+0  28786-3 0  9997
2 63258  97.6983 345.5177 0001640  74.7216 285.4186 14.95384933 57294
LEMUR-2-DELOITTE-1      
1 63259U 25052BB  26092.26878980  .00006240  00000+0  54654-3 0  9994
2 63259  97.7017 346.1845 0002454  49.6832 310.4604 14.97037774 57331
TRANSPORTER-13 OBJECT BC
1 63260U 25052BC  26092.63152763  .00002300  00000+0  21861-3 0  9998
2 63260  97.6933 345.5620 0001180 160.6208 199.5057 14.94441646 57342
LEMUR-2-EMERSONROSE     
1 63261U 25052BD  26092.65269916  .00006448  00000+0  54364-3 0  9991
2 63261  97.6987 346.9667 0001444  60.0988 300.0378 14.98511272 57420
LEMUR-2-MARACHE-FRAN    
1 63262U 25052BE  26092.20457536  .00008830  00000+0  72813-3 0  9996
2 63262  97.7004 346.7463 0001328 359.0666   1.0554 14.99262774 57378
SOAP                    
1 63263U 25052BF  26092.80827617  .00003539  00000+0  31733-3 0  9991
2 63263  97.6952 346.4173 0001059 184.0851 176.0362 14.96404588 57411
LEMUR-2-THEFALCONER     
1 63264U 25052BG  26092.41836442  .00007805  00000+0  68639-3 0  9990
2 63264  97.6942 346.0327 0000682 242.5606 117.5547 14.96801679 57357
STARLINK-11654 [DTC]    
1 63265U 25053A   26092.36649859  .00290250  00000+0  21736-2 0  9994
2 63265  42.9998 329.4767 0003003 288.8604  71.1937 15.70989589 61393
STARLINK-11659 [DTC]    
1 63266U 25053B   26092.80626420  .00236868  00000+0  17967-2 0  9999
2 63266  42.9986 326.7500 0001246 277.4251  82.6475 15.70847950 61462
STARLINK-11653 [DTC]    
1 63267U 25053C   26092.70564216  .00258405  00000+0  19356-2 0  9998
2 63267  42.9993 327.7290 0001900 223.3648 136.7070 15.71081271 61442
STARLINK-11641 [DTC]    
1 63268U 25053D   26091.96376484  .00283623  00000+0  21266-2 0  9997
2 63268  42.9981 331.6047 0002639 246.7107 113.3483 15.70980444 61339
STARLINK-11638 [DTC]    
1 63269U 25053E   26092.35057423  .00257997  00000+0  19456-2 0  9994
2 63269  43.0000 329.3465 0001260 291.0872  68.9861 15.70923048 61391
STARLINK-11614 [DTC]    
1 63270U 25053F   26092.70033395  .00264381  00000+0  19889-2 0  9992
2 63270  43.0002 327.6898 0001835 258.0111 102.0551 15.70961330 61441
STARLINK-11620 [DTC]    
1 63271U 25053G   26092.71626467  .00220573  00000+0  16764-2 0  9996
2 63271  42.9961 327.8163 0005264 294.7113  65.3207 15.70841262 61440
STARLINK-11619 [DTC]    
1 63272U 25053H   26092.37181628  .00326869  00000+0  24420-2 0  9997
2 63272  43.0008 329.5216 0000718 341.4580  18.6261 15.70936276 61395
STARLINK-11621 [DTC]    
1 63273U 25053J   26092.65786063  .00333029  00000+0  24732-2 0  9995
2 63273  42.9974 327.3449 0001842 186.6459 173.4385 15.71061674 61448
STARLINK-11615 [DTC]    
1 63274U 25053K   26092.69502187  .00231937  00000+0  17601-2 0  9995
2 63274  42.9982 327.6487 0001574 263.2287  96.8402 15.70852440 61442
STARLINK-11608 [DTC]    
1 63275U 25053L   26092.61021029  .00283386  00000+0  21319-2 0  9995
2 63275  42.9989 327.8609 0002041 307.2699  52.7982 15.70902784 61423
STARLINK-11623 [DTC]    
1 63276U 25053M   26092.01154890  .00262198  00000+0  19793-2 0  9994
2 63276  43.0019 331.9907 0002242 274.4766  85.5846 15.70884928 61321
STARLINK-33660          
1 63278U 25053P   26092.51097336  .00024601  00000+0  89971-3 0  9993
2 63278  43.0021 107.5015 0002037 265.4786  94.5833 15.27608556 59839
STARLINK-33611          
1 63279U 25053Q   26092.73960171  .00011110  00000+0  41257-3 0  9990
2 63279  42.9986 102.3121 0000266  43.1004 316.9869 15.27585858 60027
STARLINK-33646          
1 63280U 25053R   26092.34421906  .00029438  00000+0  10751-2 0  9993
2 63280  43.0007 107.9673 0001470 260.8775  99.1911 15.27575394 59816
STARLINK-33665          
1 63281U 25053S   26092.32238089  .00039856  00000+0  14481-2 0  9999
2 63281  42.9985 107.7946 0000995 270.1158  89.9580 15.27624948 59810
STARLINK-33603          
1 63282U 25053T   26092.31866965  .00034089  00000+0  12415-2 0  9997
2 63282  43.0004 108.6183 0000756 250.1867 109.8904 15.27608071 59808
STARLINK-33669          
1 63283U 25053U   26092.72240072  .00035431  00000+0  12891-2 0  9998
2 63283  43.0006 105.6400 0002945 277.4166  82.6351 15.27623429 59871
STARLINK-33673          
1 63284U 25053V   26092.49251805  .00028615  00000+0  10443-2 0  9996
2 63284  43.0017  99.5562 0001922 268.6036  91.4596 15.27612482 60032
STARLINK-33662          
1 63285U 25053W   26092.74426279  .00025616  00000+0  93667-3 0  9992
2 63285  43.0032 105.8062 0000224 346.6762  13.4083 15.27596802 59875
STARLINK-33613          
1 63286U 25053X   26092.30839513  .00038321  00000+0  13941-2 0  9997
2 63286  43.0019 108.5630 0001171 269.7489  90.3228 15.27598649 59804
STARLINK-33680          
1 63287U 25053Y   26092.72882967  .00021427  00000+0  78533-3 0  9993
2 63287  42.9986 105.6931 0002028 282.2432  77.8193 15.27603425 59921
COSMOS 2585 (RODNIK-S *)
1 63288U 25054A   26092.87456207  .00000052  00000+0  30709-3 0  9999
2 63288  82.4905 125.5272 0024194 195.7240 164.3091 12.42896512 47509
COSMOS 2586 (RODNIK-S *)
1 63289U 25054B   26092.84918464  .00000058  00000+0  34447-3 0  9994
2 63289  82.4893 125.4513 0020955 183.6855 176.4073 12.42873987 47495
COSMOS 2587 (RODNIK-S *)
1 63290U 25054C   26092.82184719  .00000046  00000+0  25689-3 0  9997
2 63290  82.4946 125.6043 0015162 171.2192 188.9155 12.42889420 47495
2025-055A               
1 63291U 25055A   26092.83758513  .00015802  00000+0  83538-3 0  9992
2 63291  97.6422 232.1692 0016486  49.2339 311.0321 15.15447516 57634
